[{"OBJECT_NAME":"GALAXY 32 (G-32)","OBJECT_ID":"2022-153B","EPOCH":"2026-03-04T04:27:38.803392","MEAN_MOTION":1.00267915,"ECCENTRICITY":0.00030041,"INCLINATION":0.0222,"RA_OF_ASC_NODE":132.7365,"ARG_OF_PERICENTER":225.3208,"MEAN_ANOMALY":139.8078,"EPHEMERIS_TYPE":0,"CLASSIFICATION_TYPE":"U","NORAD_CAT_ID":54244,"ELEMENT_SET_NO":999,"REV_AT_EPOCH":1209,"BSTAR":0,"MEAN_MOTION_DOT":0,"MEAN_MOTION_DDOT":0},{"OBJECT_NAME":"EUTELSAT 10B","OBJECT_ID":"2022-157A","EPOCH":"2026-03-05T05:29:14.248032","MEAN_MOTION":1.00268373,"ECCENTRICITY":0.0001356,"INCLINATION":0.0587,"RA_OF_ASC_NODE":101.9857,"ARG_OF_PERICENTER":13.6251,"MEAN_ANOMALY":139.6075,"EPHEMERIS_TYPE":0,"CLASSIFICATION_TYPE":"U","NORAD_CAT_ID":54259,"ELEMENT_SET_NO":999,"REV_AT_EPOCH":1198,"BSTAR":0,"MEAN_MOTION_DOT":5.9e-7,"MEAN_MOTION_DDOT":0},{"OBJECT_NAME":"GALAXY 35 (G-35)","OBJECT_ID":"2022-170A","EPOCH":"2026-03-05T04:59:47.070816","MEAN_MOTION":1.00271036,"ECCENTRICITY":0.00020318,"INCLINATION":0.0126,"RA_OF_ASC_NODE":193.9299,"ARG_OF_PERICENTER":151.6515,"MEAN_ANOMALY":159.1994,"EPHEMERIS_TYPE":0,"CLASSIFICATION_TYPE":"U","NORAD_CAT_ID":54741,"ELEMENT_SET_NO":999,"REV_AT_EPOCH":1185,"BSTAR":0,"MEAN_MOTION_DOT":-1.71e-6,"MEAN_MOTION_DDOT":0},{"OBJECT_NAME":"GALAXY 36 (G-36)","OBJECT_ID":"2022-170B","EPOCH":"2026-03-05T05:01:01.951104","MEAN_MOTION":1.00272423,"ECCENTRICITY":0.0002042,"INCLINATION":0.0169,"RA_OF_ASC_NODE":140.9074,"ARG_OF_PERICENTER":257.4067,"MEAN_ANOMALY":110.8733,"EPHEMERIS_TYPE":0,"CLASSIFICATION_TYPE":"U","NORAD_CAT_ID":54742,"ELEMENT_SET_NO":999,"REV_AT_EPOCH":1173,"BSTAR":0,"MEAN_MOTION_DOT":-1.94e-6,"MEAN_MOTION_DDOT":0},{"OBJECT_NAME":"METEOSAT-12 (MTG-I1)","OBJECT_ID":"2022-170C","EPOCH":"2026-03-05T05:26:14.535168","MEAN_MOTION":1.00269628,"ECCENTRICITY":0.00020952,"INCLINATION":0.702,"RA_OF_ASC_NODE":21.5116,"ARG_OF_PERICENTER":286.3388,"MEAN_ANOMALY":296.3697,"EPHEMERIS_TYPE":0,"CLASSIFICATION_TYPE":"U","NORAD_CAT_ID":54743,"ELEMENT_SET_NO":999,"REV_AT_EPOCH":1193,"BSTAR":0,"MEAN_MOTION_DOT":-1.6e-7,"MEAN_MOTION_DDOT":0},{"OBJECT_NAME":"SHIJIAN-23 (SJ-23)","OBJECT_ID":"2023-002A","EPOCH":"2026-03-04T20:30:35.386272","MEAN_MOTION":1.0048807,"ECCENTRICITY":0.0005844,"INCLINATION":3.4496,"RA_OF_ASC_NODE":79.6496,"ARG_OF_PERICENTER":261.7294,"MEAN_ANOMALY":258.7226,"EPHEMERIS_TYPE":0,"CLASSIFICATION_TYPE":"U","NORAD_CAT_ID":55131,"ELEMENT_SET_NO":999,"REV_AT_EPOCH":1146,"BSTAR":0,"MEAN_MOTION_DOT":-3.21e-6,"MEAN_MOTION_DDOT":0},{"OBJECT_NAME":"APSTAR-6E","OBJECT_ID":"2023-005A","EPOCH":"2026-03-05T06:04:40.850112","MEAN_MOTION":1.00271418,"ECCENTRICITY":0.00013301,"INCLINATION":0.0515,"RA_OF_ASC_NODE":250.4061,"ARG_OF_PERICENTER":55.9554,"MEAN_ANOMALY":81.7929,"EPHEMERIS_TYPE":0,"CLASSIFICATION_TYPE":"U","NORAD_CAT_ID":55239,"ELEMENT_SET_NO":999,"REV_AT_EPOCH":1764,"BSTAR":0,"MEAN_MOTION_DOT":-3.26e-6,"MEAN_MOTION_DDOT":0},{"OBJECT_NAME":"USA 342","OBJECT_ID":"2023-008A","EPOCH":"2026-03-03T19:19:23.105856","MEAN_MOTION":1.00270437,"ECCENTRICITY":4.21e-5,"INCLINATION":0.019,"RA_OF_ASC_NODE":154.74,"ARG_OF_PERICENTER":181.7368,"MEAN_ANOMALY":138.7753,"EPHEMERIS_TYPE":0,"CLASSIFICATION_TYPE":"U","NORAD_CAT_ID":55263,"ELEMENT_SET_NO":999,"REV_AT_EPOCH":1146,"BSTAR":0,"MEAN_MOTION_DOT":0,"MEAN_MOTION_DDOT":0},{"OBJECT_NAME":"LDPE-3A","OBJECT_ID":"2023-008B","EPOCH":"2026-03-05T06:26:53.718720","MEAN_MOTION":0.99221988,"ECCENTRICITY":6.639e-5,"INCLINATION":2.0771,"RA_OF_ASC_NODE":83.0098,"ARG_OF_PERICENTER":46.5182,"MEAN_ANOMALY":342.4771,"EPHEMERIS_TYPE":0,"CLASSIFICATION_TYPE":"U","NORAD_CAT_ID":55264,"ELEMENT_SET_NO":999,"REV_AT_EPOCH":1078,"BSTAR":0,"MEAN_MOTION_DOT":4.7e-7,"MEAN_MOTION_DDOT":0},{"OBJECT_NAME":"ELEKTRO-L 4","OBJECT_ID":"2023-016A","EPOCH":"2026-03-05T02:05:34.177632","MEAN_MOTION":1.0027204,"ECCENTRICITY":0.00017767,"INCLINATION":0.1002,"RA_OF_ASC_NODE":293.5293,"ARG_OF_PERICENTER":353.4717,"MEAN_ANOMALY":72.9487,"EPHEMERIS_TYPE":0,"CLASSIFICATION_TYPE":"U","NORAD_CAT_ID":55506,"ELEMENT_SET_NO":999,"REV_AT_EPOCH":1128,"BSTAR":0,"MEAN_MOTION_DOT":-6.8e-7,"MEAN_MOTION_DDOT":0},{"OBJECT_NAME":"AMAZONAS NEXUS","OBJECT_ID":"2023-017A","EPOCH":"2026-03-04T03:36:14.719968","MEAN_MOTION":1.00275833,"ECCENTRICITY":0.00044502,"INCLINATION":0.0414,"RA_OF_ASC_NODE":44.7348,"ARG_OF_PERICENTER":317.0979,"MEAN_ANOMALY":153.1232,"EPHEMERIS_TYPE":0,"CLASSIFICATION_TYPE":"U","NORAD_CAT_ID":55508,"ELEMENT_SET_NO":999,"REV_AT_EPOCH":599,"BSTAR":0,"MEAN_MOTION_DOT":-2.95e-6,"MEAN_MOTION_DDOT":0},{"OBJECT_NAME":"ZHONGXING-26","OBJECT_ID":"2023-023A","EPOCH":"2026-03-05T06:14:38.604192","MEAN_MOTION":1.0026803,"ECCENTRICITY":0.0003835,"INCLINATION":0.0632,"RA_OF_ASC_NODE":72.2584,"ARG_OF_PERICENTER":324.7711,"MEAN_ANOMALY":344.702,"EPHEMERIS_TYPE":0,"CLASSIFICATION_TYPE":"U","NORAD_CAT_ID":55686,"ELEMENT_SET_NO":999,"REV_AT_EPOCH":1118,"BSTAR":0,"MEAN_MOTION_DOT":-3.62e-6,"MEAN_MOTION_DDOT":0},{"OBJECT_NAME":"LUCH-5X (OLYMP-K 2)","OBJECT_ID":"2023-031A","EPOCH":"2026-03-04T20:37:04.112832","MEAN_MOTION":1.0027279,"ECCENTRICITY":0.0001967,"INCLINATION":0.0253,"RA_OF_ASC_NODE":88.1008,"ARG_OF_PERICENTER":120.3667,"MEAN_ANOMALY":325.3848,"EPHEMERIS_TYPE":0,"CLASSIFICATION_TYPE":"U","NORAD_CAT_ID":55841,"ELEMENT_SET_NO":999,"REV_AT_EPOCH":1089,"BSTAR":0,"MEAN_MOTION_DOT":2.3e-7,"MEAN_MOTION_DDOT":0},{"OBJECT_NAME":"GAOFEN-13 02","OBJECT_ID":"2023-036A","EPOCH":"2026-03-05T04:25:57.814752","MEAN_MOTION":1.00275193,"ECCENTRICITY":0.00053098,"INCLINATION":1.0322,"RA_OF_ASC_NODE":347.8799,"ARG_OF_PERICENTER":333.6972,"MEAN_ANOMALY":55.9965,"EPHEMERIS_TYPE":0,"CLASSIFICATION_TYPE":"U","NORAD_CAT_ID":55912,"ELEMENT_SET_NO":999,"REV_AT_EPOCH":1105,"BSTAR":0,"MEAN_MOTION_DOT":-2.27e-6,"MEAN_MOTION_DDOT":0},{"OBJECT_NAME":"SES-18","OBJECT_ID":"2023-038A","EPOCH":"2026-03-05T06:39:37.498176","MEAN_MOTION":1.00272315,"ECCENTRICITY":0.0002377,"INCLINATION":0.0579,"RA_OF_ASC_NODE":272.933,"ARG_OF_PERICENTER":36.8722,"MEAN_ANOMALY":210.002,"EPHEMERIS_TYPE":0,"CLASSIFICATION_TYPE":"U","NORAD_CAT_ID":55970,"ELEMENT_SET_NO":999,"REV_AT_EPOCH":1106,"BSTAR":0,"MEAN_MOTION_DOT":-1.09e-6,"MEAN_MOTION_DDOT":0},{"OBJECT_NAME":"SES-19","OBJECT_ID":"2023-038B","EPOCH":"2026-03-05T06:30:38.360448","MEAN_MOTION":1.00272883,"ECCENTRICITY":0.00017195,"INCLINATION":0.0516,"RA_OF_ASC_NODE":288.9516,"ARG_OF_PERICENTER":53.2268,"MEAN_ANOMALY":143.5762,"EPHEMERIS_TYPE":0,"CLASSIFICATION_TYPE":"U","NORAD_CAT_ID":55971,"ELEMENT_SET_NO":999,"REV_AT_EPOCH":1104,"BSTAR":0,"MEAN_MOTION_DOT":7.9e-7,"MEAN_MOTION_DDOT":0},{"OBJECT_NAME":"INTELSAT 40E (IS-40E)","OBJECT_ID":"2023-052A","EPOCH":"2026-03-04T08:25:14.679840","MEAN_MOTION":1.00269079,"ECCENTRICITY":7.371e-5,"INCLINATION":0.0076,"RA_OF_ASC_NODE":149.4349,"ARG_OF_PERICENTER":212.9293,"MEAN_ANOMALY":195.0275,"EPHEMERIS_TYPE":0,"CLASSIFICATION_TYPE":"U","NORAD_CAT_ID":56174,"ELEMENT_SET_NO":999,"REV_AT_EPOCH":1077,"BSTAR":0,"MEAN_MOTION_DOT":-1.85e-6,"MEAN_MOTION_DDOT":0}]
