GALAXY 32 (G-32)        
1 54244U 22153B   26063.18586578  .00000000  00000+0  00000+0 0  9995
2 54244   0.0222 132.7365 0003004 225.3208 139.8078  1.00267915 12092
EUTELSAT 10B            
1 54259U 22157A   26064.22863713  .00000059  00000+0  00000+0 0  9994
2 54259   0.0587 101.9857 0001356  13.6251 139.6075  1.00268373 11981
GALAXY 35 (G-35)        
1 54741U 22170A   26064.20818369 -.00000171  00000+0  00000+0 0  9996
2 54741   0.0126 193.9299 0002031 151.6515 159.1994  1.00271036 11857
GALAXY 36 (G-36)        
1 54742U 22170B   26064.20905036 -.00000194  00000+0  00000+0 0  9990
2 54742   0.0169 140.9074 0002042 257.4067 110.8733  1.00272423 11730
METEOSAT-12 (MTG-I1)    
1 54743U 22170C   26064.22655712 -.00000016  00000+0  00000+0 0  9999
2 54743   0.7020  21.5116 0002095 286.3388 296.3697  1.00269628 11934
SHIJIAN-23 (SJ-23)      
1 55131U 23002A   26063.85457623 -.00000321  00000+0  00000+0 0  9994
2 55131   3.4496  79.6496 0005844 261.7294 258.7226  1.00488070 11468
APSTAR-6E               
1 55239U 23005A   26064.25325058 -.00000326  00000+0  00000+0 0  9992
2 55239   0.0515 250.4061 0001330  55.9554  81.7929  1.00271418 17643
USA 342                 
1 55263U 23008A   26062.80512854  .00000000  00000+0  00000+0 0  9991
2 55263   0.0190 154.7400 0000421 181.7368 138.7753  1.00270437 11465
LDPE-3A                 
1 55264U 23008B   26064.26867730  .00000047  00000+0  00000+0 0  9991
2 55264   2.0771  83.0098 0000663  46.5182 342.4771  0.99221988 10782
ELEKTRO-L 4             
1 55506U 23016A   26064.08720113 -.00000068  00000+0  00000+0 0  9996
2 55506   0.1002 293.5293 0001776 353.4717  72.9487  1.00272040 11285
AMAZONAS NEXUS          
1 55508U 23017A   26063.15017037 -.00000295  00000+0  00000+0 0  9992
2 55508   0.0414  44.7348 0004450 317.0979 153.1232  1.00275833  5992
ZHONGXING-26            
1 55686U 23023A   26064.26016903 -.00000362  00000+0  00000+0 0  9995
2 55686   0.0632  72.2584 0003835 324.7711 344.7020  1.00268030 11186
LUCH-5X (OLYMP-K 2)     
1 55841U 23031A   26063.85907538  .00000023  00000+0  00000+0 0  9997
2 55841   0.0253  88.1008 0001967 120.3667 325.3848  1.00272790 10897
GAOFEN-13 02            
1 55912U 23036A   26064.18469693 -.00000227  00000+0  00000+0 0  9990
2 55912   1.0322 347.8799 0005309 333.6972  55.9965  1.00275193 11053
SES-18                  
1 55970U 23038A   26064.27751734 -.00000109  00000+0  00000+0 0  9995
2 55970   0.0579 272.9330 0002377  36.8722 210.0020  1.00272315 11066
SES-19                  
1 55971U 23038B   26064.27127732  .00000079  00000+0  00000+0 0  9996
2 55971   0.0516 288.9516 0001719  53.2268 143.5762  1.00272883 11049
INTELSAT 40E (IS-40E)   
1 56174U 23052A   26063.35086435 -.00000185  00000+0  00000+0 0  9999
2 56174   0.0076 149.4349 0000737 212.9293 195.0275  1.00269079 10775
